[{"OBJECT_NAME":"STARLINK-31101","OBJECT_ID":"2024-005K","EPOCH":"2026-03-09T19:28:25.332384","MEAN_MOTION":15.26741486,"ECCENTRICITY":0.0001927,"INCLINATION":43.0043,"RA_OF_ASC_NODE":218.9452,"ARG_OF_PERICENTER":280.2239,"MEAN_ANOMALY":79.8395,"EPHEMERIS_TYPE":0,"CLASSIFICATION_TYPE":"U","NORAD_CAT_ID":58737,"ELEMENT_SET_NO":999,"REV_AT_EPOCH":12045,"BSTAR":0.00022918809,"MEAN_MOTION_DOT":5.893e-5,"MEAN_MOTION_DDOT":0},{"OBJECT_NAME":"FLOCK 4G-7","OBJECT_ID":"2025-009R","EPOCH":"2026-03-09T19:11:56.638176","MEAN_MOTION":15.27141471,"ECCENTRICITY":0.00013963,"INCLINATION":97.3984,"RA_OF_ASC_NODE":150.827,"ARG_OF_PERICENTER":336.9783,"MEAN_ANOMALY":23.1393,"EPHEMERIS_TYPE":0,"CLASSIFICATION_TYPE":"U","NORAD_CAT_ID":62624,"ELEMENT_SET_NO":999,"REV_AT_EPOCH":6372,"BSTAR":0.0004316781,"MEAN_MOTION_DOT":0.00011422,"MEAN_MOTION_DDOT":0}]
